UMKA-1 (RS40S)
1 57172U 23091G   24263.53334166  .00009425  00000-0  59089-3 0  9999
2 57172  97.6018 314.6827 0017222 154.9337 205.2732 15.09427738 67710